IRIDIUM 119             
1 42959U 17061E   24205.55785517  .00000851  00000+0  29673-3 0  9993
2 42959  86.3993 315.1142 0002431  97.3672 262.7800 14.34220475355392
IRIDIUM 107             
1 42960U 17061F   24205.57688339  .00000454  00000+0  15494-3 0  9996
2 42960  86.3992 315.1230 0002411  93.7498 266.3974 14.34218704355401
IRIDIUM 132             
1 42961U 17061G   24205.58322043  .00000803  00000+0  27977-3 0  9992
2 42961  86.3992 315.1047 0002419  88.5986 271.5486 14.34223007355408
IRIDIUM 136             
1 42962U 17061H   24205.54517157  .00000049  00000+0  10496-4 0  9992
2 42962  86.3994 315.1242 0002393 100.8536 259.2929 14.34217198355418
IRIDIUM 139             
1 42963U 17061J   24205.55150792  .00000781  00000+0  27189-3 0  9991
2 42963  86.3996 315.1723 0002515  90.2270 269.9214 14.34222626355426
IRIDIUM 125             
1 42964U 17061K   24205.53882459  .00000572  00000+0  19720-3 0  9992
2 42964  86.3996 315.2258 0002613  98.3263 261.8229 14.34219368355438
IRIDIUM 135             
1 43070U 17083A   24205.37342115  .00000099  00000+0  28178-4 0  9999
2 43070  86.3939 251.9398 0002063  92.2408 267.9024 14.34216378344704
IRIDIUM 138             
1 43071U 17083B   24205.39878426  .00000282  00000+0  93659-4 0  9991
2 43071  86.3932 251.6424 0002462 100.4005 259.7469 14.34216468344693
